sat19646
1 19646U 78100AM  20046.81574824  .00006978  00000-0  22624-1 0  9990
2 19646  82.1192 171.7253 0191274 244.7548 271.2067 12.95751316124580
